[{"OBJECT_NAME":"PEXT (BARD)","OBJECT_ID":"2025-154F","EPOCH":"2026-03-09T17:02:14.512416","MEAN_MOTION":15.19773826,"ECCENTRICITY":0.0001238,"INCLINATION":97.4066,"RA_OF_ASC_NODE":135.586,"ARG_OF_PERICENTER":270.8362,"MEAN_ANOMALY":89.2731,"EPHEMERIS_TYPE":0,"CLASSIFICATION_TYPE":"U","NORAD_CAT_ID":64874,"ELEMENT_SET_NO":999,"REV_AT_EPOCH":3473,"BSTAR":0.00020462446,"MEAN_MOTION_DOT":4.311e-5,"MEAN_MOTION_DDOT":0},{"OBJECT_NAME":"CZ-6A DEB","OBJECT_ID":"2022-151ME","EPOCH":"2026-03-09T17:07:50.636064","MEAN_MOTION":15.20556855,"ECCENTRICITY":0.00283971,"INCLINATION":98.6182,"RA_OF_ASC_NODE":149.2426,"ARG_OF_PERICENTER":178.5587,"MEAN_ANOMALY":181.5732,"EPHEMERIS_TYPE":0,"CLASSIFICATION_TYPE":"U","NORAD_CAT_ID":54578,"ELEMENT_SET_NO":999,"REV_AT_EPOCH":10518,"BSTAR":0.0077423675,"MEAN_MOTION_DOT":0.00175116,"MEAN_MOTION_DDOT":0}]
